[{"OBJECT_NAME":"TEVEL2-7","OBJECT_ID":"2025-052AE","EPOCH":"2026-03-09T15:52:01.887744","MEAN_MOTION":15.28414096,"ECCENTRICITY":0.00081048,"INCLINATION":97.4054,"RA_OF_ASC_NODE":324.3041,"ARG_OF_PERICENTER":124.683,"MEAN_ANOMALY":235.5175,"EPHEMERIS_TYPE":0,"CLASSIFICATION_TYPE":"U","NORAD_CAT_ID":63238,"ELEMENT_SET_NO":999,"REV_AT_EPOCH":5480,"BSTAR":0.00069668191,"MEAN_MOTION_DOT":0.00019244,"MEAN_MOTION_DDOT":0},{"OBJECT_NAME":"STARLINK-35545","OBJECT_ID":"2025-236Z","EPOCH":"2026-03-09T11:38:15.582912","MEAN_MOTION":15.30191407,"ECCENTRICITY":0.0001675,"INCLINATION":53.16,"RA_OF_ASC_NODE":104.794,"ARG_OF_PERICENTER":77.205,"MEAN_ANOMALY":282.9138,"EPHEMERIS_TYPE":0,"CLASSIFICATION_TYPE":"U","NORAD_CAT_ID":66109,"ELEMENT_SET_NO":999,"REV_AT_EPOCH":2291,"BSTAR":0.00099837529,"MEAN_MOTION_DOT":0.00029319,"MEAN_MOTION_DDOT":0}]
